{"type": "FeatureCollection", "features": [ {"type": "Feature", "properties": {"norad_id": 30320, "name": "FENGYUN 1C DEB", "group": "fengyun-1c-debris", "lat": -14.651104852639865, "lon": -126.62820421485098, "alt_km": 884.7644008672578, "timestamp": "2025-12-22T11:33:20.714853+00:00", "meta": {"OBJECT_NAME": "FENGYUN 1C DEB", "OBJECT_ID": "1999-025AAH", "EPOCH": "2025-12-22T02:22:10.659072", "MEAN_MOTION": 13.98559886, "ECCENTRICITY": 0.0084904, "INCLINATION": 99.1862, "RA_OF_ASC_NODE": 55.4131, "ARG_OF_PERICENTER": 268.736, "MEAN_ANOMALY": 160.8695, "EPHEMERIS_TYPE": 0, "CLASSIFICATION_TYPE": "U", "NORAD_CAT_ID": 30320, "ELEMENT_SET_NO": 999, "REV_AT_EPOCH": 96538, "BSTAR": 0.00024312, "MEAN_MOTION_DOT": 3.14e-06, "MEAN_MOTION_DDOT": 0}, "tle": {"line1": "1 30320U 99025AAH 25356.09873448  .00000314  00000+0  24312-3 0  9999", "line2": "2 30320  99.1862  55.4131 0084904 268.7360 160.8695 13.98559886965389"}}, "geometry": {"type": "Point", "coordinates": [-126.62820421485098, -14.651104852639865]}}, {"type": "Feature", "properties": {"norad_id": 30321, "name": "FENGYUN 1C DEB", "group": "fengyun-1c-debris", "lat": 18.797505406275455, "lon": 178.22531810638054, "alt_km": 807.4617131243049, "timestamp": "2025-12-22T11:33:20.714863+00:00", "meta": {"OBJECT_NAME": "FENGYUN 1C DEB", "OBJECT_ID": "1999-025AAJ", "EPOCH": "2025-12-20T21:49:18.316128", "MEAN_MOTION": 14.16650049, "ECCENTRICITY": 0.0060243, "INCLINATION": 98.6564, "RA_OF_ASC_NODE": 353.7236, "ARG_OF_PERICENTER": 213.0381, "MEAN_ANOMALY": 214.4666, "EPHEMERIS_TYPE": 0, "CLASSIFICATION_TYPE": "U", "NORAD_CAT_ID": 30321, "ELEMENT_SET_NO": 999, "REV_AT_EPOCH": 97659, "BSTAR": 0.00022574, "MEAN_MOTION_DOT": 4.16e-06, "MEAN_MOTION_DDOT": 0}, "tle": {"line1": "1 30321U 99025AAJ 25354.90923977  .00000416  00000+0  22574-3 0  9992", "line2": "2 30321  98.6564 353.7236 0060243 213.0381 214.4666 14.16650049976592"}}, "geometry": {"type": "Point", "coordinates": [178.22531810638054, 18.797505406275455]}}, {"type": "Feature", "properties": {"norad_id": 30322, "name": "FENGYUN 1C DEB", "group": "fengyun-1c-debris", "lat": 17.154337820840656, "lon": 36.0866781658056, "alt_km": 830.1819767461857, "timestamp": "2025-12-22T11:33:20.714873+00:00", "meta": {"OBJECT_NAME": "FENGYUN 1C DEB", "OBJECT_ID": "1999-025AAK", "EPOCH": "2025-12-21T02:19:34.888512", "MEAN_MOTION": 14.06131981, "ECCENTRICITY": 0.01264853, "INCLINATION": 98.3982, "RA_OF_ASC_NODE": 212.1883, "ARG_OF_PERICENTER": 229.2511, "MEAN_ANOMALY": 129.7624, "EPHEMERIS_TYPE": 0, "CLASSIFICATION_TYPE": "U", "NORAD_CAT_ID": 30322, "ELEMENT_SET_NO": 999, "REV_AT_EPOCH": 96317, "BSTAR": 0.00092721534, "MEAN_MOTION_DOT": 1.598e-05, "MEAN_MOTION_DDOT": 0}, "tle": {"line1": "1 30322U 99025AAK 25355.09693158  .00001598  00000+0  92722-3 0  9993", "line2": "2 30322  98.3982 212.1883 0126485 229.2511 129.7624 14.06131981963175"}}, "geometry": {"type": "Point", "coordinates": [36.0866781658056, 17.154337820840656]}}, {"type": "Feature", "properties": {"norad_id": 30325, "name": "FENGYUN 1C DEB", "group": "fengyun-1c-debris", "lat": -60.093076338053855, "lon": 31.029433976006995, "alt_km": 866.5171666179285, "timestamp": "2025-12-22T11:33:20.714883+00:00", "meta": {"OBJECT_NAME": "FENGYUN 1C DEB", "OBJECT_ID": "1999-025AAL", "EPOCH": "2025-12-21T18:48:17.163936", "MEAN_MOTION": 14.0910709, "ECCENTRICITY": 0.0015484, "INCLINATION": 98.7322, "RA_OF_ASC_NODE": 14.855, "ARG_OF_PERICENTER": 226.2639, "MEAN_ANOMALY": 133.725, "EPHEMERIS_TYPE": 0, "CLASSIFICATION_TYPE": "U", "NORAD_CAT_ID": 30325, "ELEMENT_SET_NO": 999, "REV_AT_EPOCH": 97143, "BSTAR": 0.00012114, "MEAN_MOTION_DOT": 1.68e-06, "MEAN_MOTION_DDOT": 0}, "tle": {"line1": "1 30325U 99025AAL 25355.78353199  .00000168  00000+0  12114-3 0  9999", "line2": "2 30325  98.7322  14.8550 0015484 226.2639 133.7250 14.09107090971437"}}, "geometry": {"type": "Point", "coordinates": [31.029433976006995, -60.093076338053855]}}, {"type": "Feature", "properties": {"norad_id": 30326, "name": "FENGYUN 1C DEB", "group": "fengyun-1c-debris", "lat": 61.65278140694696, "lon": 79.45426182793211, "alt_km": 977.751702731427, "timestamp": "2025-12-22T11:33:20.714893+00:00", "meta": {"OBJECT_NAME": "FENGYUN 1C DEB", "OBJECT_ID": "1999-025AAM", "EPOCH": "2025-12-22T02:20:04.985952", "MEAN_MOTION": 13.85479545, "ECCENTRICITY": 0.0142015, "INCLINATION": 98.6539, "RA_OF_ASC_NODE": 242.7031, "ARG_OF_PERICENTER": 5.1582, "MEAN_ANOMALY": 355.1, "EPHEMERIS_TYPE": 0, "CLASSIFICATION_TYPE": "U", "NORAD_CAT_ID": 30326, "ELEMENT_SET_NO": 999, "REV_AT_EPOCH": 95585, "BSTAR": 0.00019386, "MEAN_MOTION_DOT": 1.99e-06, "MEAN_MOTION_DDOT": 0}, "tle": {"line1": "1 30326U 99025AAM 25356.09727993  .00000199  00000+0  19386-3 0  9994", "line2": "2 30326  98.6539 242.7031 0142015   5.1582 355.1000 13.85479545955856"}}, "geometry": {"type": "Point", "coordinates": [79.45426182793211, 61.65278140694696]}}, {"type": "Feature", "properties": {"norad_id": 30327, "name": "FENGYUN 1C DEB", "group": "fengyun-1c-debris", "lat": 44.5031128300707, "lon": -118.07596496092124, "alt_km": 797.3809770464604, "timestamp": "2025-12-22T11:33:20.714903+00:00", "meta": {"OBJECT_NAME": "FENGYUN 1C DEB", "OBJECT_ID": "1999-025AAN", "EPOCH": "2025-12-19T15:45:09.237024", "MEAN_MOTION": 14.18028637, "ECCENTRICITY": 0.011747, "INCLINATION": 98.4446, "RA_OF_ASC_NODE": 247.6313, "ARG_OF_PERICENTER": 122.698, "MEAN_ANOMALY": 269.8264, "EPHEMERIS_TYPE": 0, "CLASSIFICATION_TYPE": "U", "NORAD_CAT_ID": 30327, "ELEMENT_SET_NO": 999, "REV_AT_EPOCH": 96541, "BSTAR": 0.0012536, "MEAN_MOTION_DOT": 2.71e-05, "MEAN_MOTION_DDOT": 0}, "tle": {"line1": "1 30327U 99025AAN 25353.65635691  .00002710  00000+0  12536-2 0  9997", "line2": "2 30327  98.4446 247.6313 0117470 122.6980 269.8264 14.18028637965418"}}, "geometry": {"type": "Point", "coordinates": [-118.07596496092124, 44.5031128300707]}}, {"type": "Feature", "properties": {"norad_id": 30328, "name": "FENGYUN 1C DEB", "group": "fengyun-1c-debris", "lat": 7.695995126789247, "lon": 5.120017031240153, "alt_km": 854.962899583843, "timestamp": "2025-12-22T11:33:20.714913+00:00", "meta": {"OBJECT_NAME": "FENGYUN 1C DEB", "OBJECT_ID": "1999-025AAP", "EPOCH": "2025-12-21T19:22:11.616096", "MEAN_MOTION": 14.12478025, "ECCENTRICITY": 0.000614, "INCLINATION": 98.6861, "RA_OF_ASC_NODE": 5.65, "ARG_OF_PERICENTER": 129.7182, "MEAN_ANOMALY": 50.8371, "EPHEMERIS_TYPE": 0, "CLASSIFICATION_TYPE": "U", "NORAD_CAT_ID": 30328, "ELEMENT_SET_NO": 999, "REV_AT_EPOCH": 97392, "BSTAR": 0.00010161, "MEAN_MOTION_DOT": 1.45e-06, "MEAN_MOTION_DDOT": 0}, "tle": {"line1": "1 30328U 99025AAP 25355.80707889  .00000145  00000+0  10161-3 0  9999", "line2": "2 30328  98.6861   5.6500 0006140 129.7182  50.8371 14.12478025973921"}}, "geometry": {"type": "Point", "coordinates": [5.120017031240153, 7.695995126789247]}}, {"type": "Feature", "properties": {"norad_id": 30329, "name": "FENGYUN 1C DEB", "group": "fengyun-1c-debris", "lat": -57.73010157290002, "lon": 80.78268904877814, "alt_km": 1013.9929851618299, "timestamp": "2025-12-22T11:33:20.714923+00:00", "meta": {"OBJECT_NAME": "FENGYUN 1C DEB", "OBJECT_ID": "1999-025AAQ", "EPOCH": "2025-12-21T05:42:33.461856", "MEAN_MOTION": 13.86750488, "ECCENTRICITY": 0.0142167, "INCLINATION": 99.2633, "RA_OF_ASC_NODE": 274.5297, "ARG_OF_PERICENTER": 12.8663, "MEAN_ANOMALY": 142.1577, "EPHEMERIS_TYPE": 0, "CLASSIFICATION_TYPE": "U", "NORAD_CAT_ID": 30329, "ELEMENT_SET_NO": 999, "REV_AT_EPOCH": 95528, "BSTAR": 0.00038592, "MEAN_MOTION_DOT": 4.43e-06, "MEAN_MOTION_DDOT": 0}, "tle": {"line1": "1 30329U 99025AAQ 25355.23788729  .00000443  00000+0  38592-3 0  9998", "line2": "2 30329  99.2633 274.5297 0142167  12.8663 142.1577 13.86750488955280"}}, "geometry": {"type": "Point", "coordinates": [80.78268904877814, -57.73010157290002]}}, {"type": "Feature", "properties": {"norad_id": 30330, "name": "FENGYUN 1C DEB", "group": "fengyun-1c-debris", "lat": 68.49370010890348, "lon": -168.32390715168506, "alt_km": 857.7651435338621, "timestamp": "2025-12-22T11:33:20.714933+00:00", "meta": {"OBJECT_NAME": "FENGYUN 1C DEB", "OBJECT_ID": "1999-025AAR", "EPOCH": "2025-12-21T21:27:01.564704", "MEAN_MOTION": 13.82085252, "ECCENTRICITY": 0.0187727, "INCLINATION": 98.8863, "RA_OF_ASC_NODE": 347.7288, "ARG_OF_PERICENTER": 160.0795, "MEAN_ANOMALY": 268.5195, "EPHEMERIS_TYPE": 0, "CLASSIFICATION_TYPE": "U", "NORAD_CAT_ID": 30330, "ELEMENT_SET_NO": 999, "REV_AT_EPOCH": 94784, "BSTAR": 0.0011132, "MEAN_MOTION_DOT": 1.33e-05, "MEAN_MOTION_DDOT": 0}, "tle": {"line1": "1 30330U 99025AAR 25355.89376811  .00001330  00000+0  11132-2 0  9993", "line2": "2 30330  98.8863 347.7288 0187727 160.0795 268.5195 13.82085252947846"}}, "geometry": {"type": "Point", "coordinates": [-168.32390715168506, 68.49370010890348]}}, {"type": "Feature", "properties": {"norad_id": 30331, "name": "FENGYUN 1C DEB", "group": "fengyun-1c-debris", "lat": 7.112847359390426, "lon": -148.05379789431004, "alt_km": 971.6122694076766, "timestamp": "2025-12-22T11:33:20.714967+00:00", "meta": {"OBJECT_NAME": "FENGYUN 1C DEB", "OBJECT_ID": "1999-025AAS", "EPOCH": "2025-12-22T02:25:55.445088", "MEAN_MOTION": 13.97840979, "ECCENTRICITY": 0.0095945, "INCLINATION": 98.9552, "RA_OF_ASC_NODE": 30.448, "ARG_OF_PERICENTER": 342.2453, "MEAN_ANOMALY": 78.689, "EPHEMERIS_TYPE": 0, "CLASSIFICATION_TYPE": "U", "NORAD_CAT_ID": 30331, "ELEMENT_SET_NO": 999, "REV_AT_EPOCH": 96250, "BSTAR": 0.00048401, "MEAN_MOTION_DOT": 6.69e-06, "MEAN_MOTION_DDOT": 0}, "tle": {"line1": "1 30331U 99025AAS 25356.10133617  .00000669  00000+0  48401-3 0  9998", "line2": "2 30331  98.9552  30.4480 0095945 342.2453  78.6890 13.97840979962501"}}, "geometry": {"type": "Point", "coordinates": [-148.05379789431004, 7.112847359390426]}}]}